ORBCOMM FM33            
1 25983U 99065D   25361.48415354  .00001251  00000+0  43329-3 0  9999
2 25983  45.0263 159.6004 0007507 312.2179  47.8033 14.40563594363938
ORBCOMM FM36            
1 25984U 99065E   25361.14212641  .00001242  00000+0  44692-3 0  9991
2 25984  45.0387 256.0810 0001745 203.2951 156.7819 14.38749227362205
ORBCOMM FM35            
1 25985U 99065F   25361.75045699  .00001178  00000+0  43543-3 0  9998
2 25985  45.0392 259.8080 0004408 300.9493  59.0922 14.37655186362633
ORBCOMM FM34            
1 25986U 99065G   25361.78708338  .00000955  00000+0  36234-3 0  9999
2 25986  45.0387 260.1076 0003508 255.0314 105.0146 14.37601334362759
ORBCOMM FM38            
1 33060U 08031A   25351.76850136  .00001404  00000+0  20080-3 0  9997
2 33060  48.4372 159.8035 0004435 120.0486 240.0870 14.82282580941971
ORBCOMM FM41            
1 33061U 08031B   25361.83062730  .00002925  00000+0  39250-3 0  9990
2 33061  48.4419 120.2433 0003687 151.7165 348.7806 14.81884558942946
ORBCOMM FM29            
1 33062U 08031C   25361.80187347  .00003101  00000+0  41307-3 0  9993
2 33062  48.4372 127.9268 0005442 147.0702   8.5593 14.82033856942853
ORBCOMM FM39            
1 33063U 08031D   25361.72980419  .00002171  00000+0  30841-3 0  9993
2 33063  48.4392 154.7429 0006134 112.9639 247.1923 14.80461046942461
